[{"OBJECT_NAME":"STARLINK-3069","OBJECT_ID":"2021-082AY","EPOCH":"2026-03-09T21:43:49.351584","MEAN_MOTION":14.98327992,"ECCENTRICITY":0.00025651,"INCLINATION":69.9983,"RA_OF_ASC_NODE":253.9053,"ARG_OF_PERICENTER":268.6188,"MEAN_ANOMALY":91.4677,"EPHEMERIS_TYPE":0,"CLASSIFICATION_TYPE":"U","NORAD_CAT_ID":49176,"ELEMENT_SET_NO":999,"REV_AT_EPOCH":24699,"BSTAR":1.540177e-5,"MEAN_MOTION_DOT":9.1e-7,"MEAN_MOTION_DDOT":0},{"OBJECT_NAME":"SL-16 DEB","OBJECT_ID":"1992-093L","EPOCH":"2026-03-09T13:43:05.820096","MEAN_MOTION":14.92566733,"ECCENTRICITY":0.00224926,"INCLINATION":70.8231,"RA_OF_ASC_NODE":106.9008,"ARG_OF_PERICENTER":139.8913,"MEAN_ANOMALY":15.7142,"EPHEMERIS_TYPE":0,"CLASSIFICATION_TYPE":"U","NORAD_CAT_ID":22296,"ELEMENT_SET_NO":999,"REV_AT_EPOCH":72300,"BSTAR":0.0028358785,"MEAN_MOTION_DOT":0.00029386,"MEAN_MOTION_DDOT":0}]
